[{"OBJECT_NAME":"GJZ 04","OBJECT_ID":"2024-238D","EPOCH":"2026-03-09T23:01:45.855264","MEAN_MOTION":13.75183996,"ECCENTRICITY":0.00067152,"INCLINATION":59.9121,"RA_OF_ASC_NODE":211.3877,"ARG_OF_PERICENTER":262.5602,"MEAN_ANOMALY":97.4643,"EPHEMERIS_TYPE":0,"CLASSIFICATION_TYPE":"U","NORAD_CAT_ID":62293,"ELEMENT_SET_NO":999,"REV_AT_EPOCH":6226,"BSTAR":8.6972418e-5,"MEAN_MOTION_DOT":-3.5e-7,"MEAN_MOTION_DDOT":0},{"OBJECT_NAME":"COSMOS 1275 DEB","OBJECT_ID":"1981-053GS","EPOCH":"2026-03-09T07:55:26.432256","MEAN_MOTION":13.81274752,"ECCENTRICITY":0.00763194,"INCLINATION":83.012,"RA_OF_ASC_NODE":178.7756,"ARG_OF_PERICENTER":48.0947,"MEAN_ANOMALY":312.6687,"EPHEMERIS_TYPE":0,"CLASSIFICATION_TYPE":"U","NORAD_CAT_ID":13798,"ELEMENT_SET_NO":999,"REV_AT_EPOCH":22859,"BSTAR":0.00048437148,"MEAN_MOTION_DOT":5.41e-6,"MEAN_MOTION_DDOT":0}]
